<?xml version="1.0" encoding="UTF-8"?>
<ndm xmlns:xsi="http://www.w3.org/2001/XMLSchema-instance" xsi:noNamespaceSchemaLocation="https://sanaregistry.org/r/ndmxml_unqualified/ndmxml-2.0.0-master-2.0.xsd">
<omm id="CCSDS_OMM_VERS" version="2.0">
<header><CREATION_DATE/><ORIGINATOR/></header><body><segment><metadata><OBJECT_NAME>ORBCOMM FM24</OBJECT_NAME><OBJECT_ID>1998-053D</OBJECT_ID><CENTER_NAME>EARTH</CENTER_NAME><REF_FRAME>TEME</REF_FRAME><TIME_SYSTEM>UTC</TIME_SYSTEM><MEAN_ELEMENT_THEORY>SGP4</MEAN_ELEMENT_THEORY></metadata><data><meanElements><EPOCH>2024-06-19T11:49:02.108928</EPOCH><MEAN_MOTION>14.35845798</MEAN_MOTION><ECCENTRICITY>.0002806</ECCENTRICITY><INCLINATION>45.0072</INCLINATION><RA_OF_ASC_NODE>185.9499</RA_OF_ASC_NODE><ARG_OF_PERICENTER>261.7264</ARG_OF_PERICENTER><MEAN_ANOMALY>98.3265</MEAN_ANOMALY></meanElements><tleParameters><EPHEMERIS_TYPE>0</EPHEMERIS_TYPE><CLASSIFICATION_TYPE>U</CLASSIFICATION_TYPE><NORAD_CAT_ID>25478</NORAD_CAT_ID><ELEMENT_SET_NO>999</ELEMENT_SET_NO><REV_AT_EPOCH>34527</REV_AT_EPOCH><BSTAR>.37824E-3</BSTAR><MEAN_MOTION_DOT>.964E-5</MEAN_MOTION_DOT><MEAN_MOTION_DDOT>0</MEAN_MOTION_DDOT></tleParameters></data></segment></body></omm>
<omm id="CCSDS_OMM_VERS" version="2.0">
<header><CREATION_DATE/><ORIGINATOR/></header><body><segment><metadata><OBJECT_NAME>ORBCOMM FM25</OBJECT_NAME><OBJECT_ID>1998-053E</OBJECT_ID><CENTER_NAME>EARTH</CENTER_NAME><REF_FRAME>TEME</REF_FRAME><TIME_SYSTEM>UTC</TIME_SYSTEM><MEAN_ELEMENT_THEORY>SGP4</MEAN_ELEMENT_THEORY></metadata><data><meanElements><EPOCH>2024-06-19T17:42:05.964192</EPOCH><MEAN_MOTION>14.35825589</MEAN_MOTION><ECCENTRICITY>.0005252</ECCENTRICITY><INCLINATION>45.0062</INCLINATION><RA_OF_ASC_NODE>183.0388</RA_OF_ASC_NODE><ARG_OF_PERICENTER>251.8286</ARG_OF_PERICENTER><MEAN_ANOMALY>108.1990</MEAN_ANOMALY></meanElements><tleParameters><EPHEMERIS_TYPE>0</EPHEMERIS_TYPE><CLASSIFICATION_TYPE>U</CLASSIFICATION_TYPE><NORAD_CAT_ID>25479</NORAD_CAT_ID><ELEMENT_SET_NO>999</ELEMENT_SET_NO><REV_AT_EPOCH>34560</REV_AT_EPOCH><BSTAR>.37187E-3</BSTAR><MEAN_MOTION_DOT>.945E-5</MEAN_MOTION_DOT><MEAN_MOTION_DDOT>0</MEAN_MOTION_DDOT></tleParameters></data></segment></body></omm>
<omm id="CCSDS_OMM_VERS" version="2.0">
<header><CREATION_DATE/><ORIGINATOR/></header><body><segment><metadata><OBJECT_NAME>ORBCOMM FM26</OBJECT_NAME><OBJECT_ID>1998-053F</OBJECT_ID><CENTER_NAME>EARTH</CENTER_NAME><REF_FRAME>TEME</REF_FRAME><TIME_SYSTEM>UTC</TIME_SYSTEM><MEAN_ELEMENT_THEORY>SGP4</MEAN_ELEMENT_THEORY></metadata><data><meanElements><EPOCH>2024-06-19T23:15:09.237888</EPOCH><MEAN_MOTION>14.35246501</MEAN_MOTION><ECCENTRICITY>.0007589</ECCENTRICITY><INCLINATION>45.0058</INCLINATION><RA_OF_ASC_NODE>176.2393</RA_OF_ASC_NODE><ARG_OF_PERICENTER>263.3339</ARG_OF_PERICENTER><MEAN_ANOMALY>96.6645</MEAN_ANOMALY></meanElements><tleParameters><EPHEMERIS_TYPE>0</EPHEMERIS_TYPE><CLASSIFICATION_TYPE>U</CLASSIFICATION_TYPE><NORAD_CAT_ID>25480</NORAD_CAT_ID><ELEMENT_SET_NO>999</ELEMENT_SET_NO><REV_AT_EPOCH>34557</REV_AT_EPOCH><BSTAR>.30103E-3</BSTAR><MEAN_MOTION_DOT>.728E-5</MEAN_MOTION_DOT><MEAN_MOTION_DDOT>0</MEAN_MOTION_DDOT></tleParameters></data></segment></body></omm>
<omm id="CCSDS_OMM_VERS" version="2.0">
<header><CREATION_DATE/><ORIGINATOR/></header><body><segment><metadata><OBJECT_NAME>ORBCOMM FM27</OBJECT_NAME><OBJECT_ID>1998-053G</OBJECT_ID><CENTER_NAME>EARTH</CENTER_NAME><REF_FRAME>TEME</REF_FRAME><TIME_SYSTEM>UTC</TIME_SYSTEM><MEAN_ELEMENT_THEORY>SGP4</MEAN_ELEMENT_THEORY></metadata><data><meanElements><EPOCH>2024-06-19T17:25:32.367648</EPOCH><MEAN_MOTION>14.35813830</MEAN_MOTION><ECCENTRICITY>.0002305</ECCENTRICITY><INCLINATION>45.0047</INCLINATION><RA_OF_ASC_NODE>183.3561</RA_OF_ASC_NODE><ARG_OF_PERICENTER>296.3686</ARG_OF_PERICENTER><MEAN_ANOMALY>63.6925</MEAN_ANOMALY></meanElements><tleParameters><EPHEMERIS_TYPE>0</EPHEMERIS_TYPE><CLASSIFICATION_TYPE>U</CLASSIFICATION_TYPE><NORAD_CAT_ID>25481</NORAD_CAT_ID><ELEMENT_SET_NO>999</ELEMENT_SET_NO><REV_AT_EPOCH>34553</REV_AT_EPOCH><BSTAR>.37025E-3</BSTAR><MEAN_MOTION_DOT>.94E-5</MEAN_MOTION_DOT><MEAN_MOTION_DDOT>0</MEAN_MOTION_DDOT></tleParameters></data></segment></body></omm>
<omm id="CCSDS_OMM_VERS" version="2.0">
<header><CREATION_DATE/><ORIGINATOR/></header><body><segment><metadata><OBJECT_NAME>ORBCOMM FM28</OBJECT_NAME><OBJECT_ID>1998-053H</OBJECT_ID><CENTER_NAME>EARTH</CENTER_NAME><REF_FRAME>TEME</REF_FRAME><TIME_SYSTEM>UTC</TIME_SYSTEM><MEAN_ELEMENT_THEORY>SGP4</MEAN_ELEMENT_THEORY></metadata><data><meanElements><EPOCH>2024-06-19T21:49:16.743648</EPOCH><MEAN_MOTION>14.36236968</MEAN_MOTION><ECCENTRICITY>.0005239</ECCENTRICITY><INCLINATION>45.0056</INCLINATION><RA_OF_ASC_NODE>120.8236</RA_OF_ASC_NODE><ARG_OF_PERICENTER>295.6375</ARG_OF_PERICENTER><MEAN_ANOMALY>64.3931</MEAN_ANOMALY></meanElements><tleParameters><EPHEMERIS_TYPE>0</EPHEMERIS_TYPE><CLASSIFICATION_TYPE>U</CLASSIFICATION_TYPE><NORAD_CAT_ID>25482</NORAD_CAT_ID><ELEMENT_SET_NO>999</ELEMENT_SET_NO><REV_AT_EPOCH>34623</REV_AT_EPOCH><BSTAR>.41889E-3</BSTAR><MEAN_MOTION_DOT>.1093E-4</MEAN_MOTION_DOT><MEAN_MOTION_DDOT>0</MEAN_MOTION_DDOT></tleParameters></data></segment></body></omm>
<omm id="CCSDS_OMM_VERS" version="2.0">
<header><CREATION_DATE/><ORIGINATOR/></header><body><segment><metadata><OBJECT_NAME>ORBCOMM FM30</OBJECT_NAME><OBJECT_ID>1999-065A</OBJECT_ID><CENTER_NAME>EARTH</CENTER_NAME><REF_FRAME>TEME</REF_FRAME><TIME_SYSTEM>UTC</TIME_SYSTEM><MEAN_ELEMENT_THEORY>SGP4</MEAN_ELEMENT_THEORY></metadata><data><meanElements><EPOCH>2024-06-19T22:14:53.852352</EPOCH><MEAN_MOTION>14.35386878</MEAN_MOTION><ECCENTRICITY>.0005439</ECCENTRICITY><INCLINATION>45.0337</INCLINATION><RA_OF_ASC_NODE>2.0057</RA_OF_ASC_NODE><ARG_OF_PERICENTER>354.6188</ARG_OF_PERICENTER><MEAN_ANOMALY>5.4600</MEAN_ANOMALY></meanElements><tleParameters><EPHEMERIS_TYPE>0</EPHEMERIS_TYPE><CLASSIFICATION_TYPE>U</CLASSIFICATION_TYPE><NORAD_CAT_ID>25980</NORAD_CAT_ID><ELEMENT_SET_NO>999</ELEMENT_SET_NO><REV_AT_EPOCH>28236</REV_AT_EPOCH><BSTAR>.38291E-3</BSTAR><MEAN_MOTION_DOT>.967E-5</MEAN_MOTION_DOT><MEAN_MOTION_DDOT>0</MEAN_MOTION_DDOT></tleParameters></data></segment></body></omm>
<omm id="CCSDS_OMM_VERS" version="2.0">
<header><CREATION_DATE/><ORIGINATOR/></header><body><segment><metadata><OBJECT_NAME>ORBCOMM FM31</OBJECT_NAME><OBJECT_ID>1999-065B</OBJECT_ID><CENTER_NAME>EARTH</CENTER_NAME><REF_FRAME>TEME</REF_FRAME><TIME_SYSTEM>UTC</TIME_SYSTEM><MEAN_ELEMENT_THEORY>SGP4</MEAN_ELEMENT_THEORY></metadata><data><meanElements><EPOCH>2024-06-19T21:25:24.095136</EPOCH><MEAN_MOTION>14.35381296</MEAN_MOTION><ECCENTRICITY>.0002674</ECCENTRICITY><INCLINATION>45.0248</INCLINATION><RA_OF_ASC_NODE>355.8317</RA_OF_ASC_NODE><ARG_OF_PERICENTER>25.3122</ARG_OF_PERICENTER><MEAN_ANOMALY>334.7857</MEAN_ANOMALY></meanElements><tleParameters><EPHEMERIS_TYPE>0</EPHEMERIS_TYPE><CLASSIFICATION_TYPE>U</CLASSIFICATION_TYPE><NORAD_CAT_ID>25981</NORAD_CAT_ID><ELEMENT_SET_NO>999</ELEMENT_SET_NO><REV_AT_EPOCH>28191</REV_AT_EPOCH><BSTAR>.37474E-3</BSTAR><MEAN_MOTION_DOT>.944E-5</MEAN_MOTION_DOT><MEAN_MOTION_DDOT>0</MEAN_MOTION_DDOT></tleParameters></data></segment></body></omm>
<omm id="CCSDS_OMM_VERS" version="2.0">
<header><CREATION_DATE/><ORIGINATOR/></header><body><segment><metadata><OBJECT_NAME>ORBCOMM FM32</OBJECT_NAME><OBJECT_ID>1999-065C</OBJECT_ID><CENTER_NAME>EARTH</CENTER_NAME><REF_FRAME>TEME</REF_FRAME><TIME_SYSTEM>UTC</TIME_SYSTEM><MEAN_ELEMENT_THEORY>SGP4</MEAN_ELEMENT_THEORY></metadata><data><meanElements><EPOCH>2024-06-19T21:39:23.150592</EPOCH><MEAN_MOTION>14.34384535</MEAN_MOTION><ECCENTRICITY>.000518</ECCENTRICITY><INCLINATION>45.0178</INCLINATION><RA_OF_ASC_NODE>9.8784</RA_OF_ASC_NODE><ARG_OF_PERICENTER>24.5859</ARG_OF_PERICENTER><MEAN_ANOMALY>335.5235</MEAN_ANOMALY></meanElements><tleParameters><EPHEMERIS_TYPE>0</EPHEMERIS_TYPE><CLASSIFICATION_TYPE>U</CLASSIFICATION_TYPE><NORAD_CAT_ID>25982</NORAD_CAT_ID><ELEMENT_SET_NO>999</ELEMENT_SET_NO><REV_AT_EPOCH>28254</REV_AT_EPOCH><BSTAR>.37244E-3</BSTAR><MEAN_MOTION_DOT>.916E-5</MEAN_MOTION_DOT><MEAN_MOTION_DDOT>0</MEAN_MOTION_DDOT></tleParameters></data></segment></body></omm>

</ndm>
