ORBCOMM FM24            
1 25478U 98053D   24171.49238552  .00000964  00000+0  37824-3 0  9999
2 25478  45.0072 185.9499 0002806 261.7264  98.3265 14.35845798345273
ORBCOMM FM25            
1 25479U 98053E   24171.73756903  .00000945  00000+0  37187-3 0  9993
2 25479  45.0062 183.0388 0005252 251.8286 108.1990 14.35825589345609
ORBCOMM FM26            
1 25480U 98053F   24171.96885692  .00000728  00000+0  30103-3 0  9998
2 25480  45.0058 176.2393 0007589 263.3339  96.6645 14.35246501345573
ORBCOMM FM27            
1 25481U 98053G   24171.72606907  .00000940  00000+0  37025-3 0  9999
2 25481  45.0047 183.3561 0002305 296.3686  63.6925 14.35813830345536
ORBCOMM FM28            
1 25482U 98053H   24171.90922157  .00001093  00000+0  41889-3 0  9991
2 25482  45.0056 120.8236 0005239 295.6375  64.3931 14.36236968346233
ORBCOMM FM30            
1 25980U 99065A   24171.92701218  .00000967  00000+0  38291-3 0  9995
2 25980  45.0337   2.0057 0005439 354.6188   5.4600 14.35386878282367
ORBCOMM FM31            
1 25981U 99065B   24171.89263999  .00000944  00000+0  37474-3 0  9998
2 25981  45.0248 355.8317 0002674  25.3122 334.7857 14.35381296281916
ORBCOMM FM32            
1 25982U 99065C   24171.90235128  .00000916  00000+0  37244-3 0  9998
2 25982  45.0178   9.8784 0005180  24.5859 335.5235 14.34384535282543
